{
  "type": "FeatureCollection",
  "features": [
    {
      "type": "Feature",
      "properties": {
        "norad_id": 37994,
        "name": "COSMOS 2251 DEB",
        "group": "cosmos-2251-debris",
        "lat": 65.72220954221312,
        "lon": 31.908655273199354,
        "alt_km": 765.6813856008548,
        "timestamp": "2025-12-25T22:42:17.411069+00:00",
        "meta_object_name": "COSMOS 2251 DEB",
        "meta_object_id": "1993-036BQV",
        "meta_epoch": "2025-12-25T17:11:58.884000",
        "meta_mean_motion": 14.39651343,
        "meta_eccentricity": 0.0023412,
        "meta_inclination": 74.0357,
        "meta_ra_of_asc_node": 251.7257,
        "meta_arg_of_pericenter": 328.9288,
        "meta_mean_anomaly": 31.048,
        "meta_ephemeris_type": 0,
        "meta_classification_type": "U",
        "meta_norad_cat_id": 37994,
        "meta_element_set_no": 999,
        "meta_rev_at_epoch": 77251,
        "meta_bstar": 0.00032803,
        "meta_mean_motion_dot": 1.003e-05,
        "meta_mean_motion_ddot": 0,
        "tle_line1": "1 37994U 93036BQV 25359.71665375  .00001003  00000+0  32803-3 0  9999",
        "tle_line2": "2 37994  74.0357 251.7257 0023412 328.9288  31.0480 14.39651343772518"
      },
      "geometry": {
        "type": "Point",
        "coordinates": [
          31.908655273199354,
          65.72220954221312
        ]
      }
    },
    {
      "type": "Feature",
      "properties": {
        "norad_id": 37998,
        "name": "COSMOS 2251 DEB",
        "group": "cosmos-2251-debris",
        "lat": -65.22714960843678,
        "lon": 172.14592458370873,
        "alt_km": 732.928146686595,
        "timestamp": "2025-12-25T22:42:17.411079+00:00",
        "meta_object_name": "COSMOS 2251 DEB",
        "meta_object_id": "1993-036BQZ",
        "meta_epoch": "2025-12-19T00:55:56.823168",
        "meta_mean_motion": 14.45502343,
        "meta_eccentricity": 0.00202427,
        "meta_inclination": 74.0345,
        "meta_ra_of_asc_node": 223.3597,
        "meta_arg_of_pericenter": 295.5973,
        "meta_mean_anomaly": 64.3093,
        "meta_ephemeris_type": 0,
        "meta_classification_type": "U",
        "meta_norad_cat_id": 37998,
        "meta_element_set_no": 999,
        "meta_rev_at_epoch": 64378,
        "meta_bstar": 0.00035299512,
        "meta_mean_motion_dot": 1.221e-05,
        "meta_mean_motion_ddot": 0,
        "tle_line1": "1 37998U 93036BQZ 25353.03885212  .00001221  00000+0  35300-3 0  9993",
        "tle_line2": "2 37998  74.0345 223.3597 0020242 295.5973  64.3093 14.45502343643786"
      },
      "geometry": {
        "type": "Point",
        "coordinates": [
          172.14592458370873,
          -65.22714960843678
        ]
      }
    },
    {
      "type": "Feature",
      "properties": {
        "norad_id": 38001,
        "name": "COSMOS 2251 DEB",
        "group": "cosmos-2251-debris",
        "lat": 43.00723365050003,
        "lon": 121.81642819974965,
        "alt_km": 668.2683082396088,
        "timestamp": "2025-12-25T22:42:17.411089+00:00",
        "meta_object_name": "COSMOS 2251 DEB",
        "meta_object_id": "1993-036BRC",
        "meta_epoch": "2025-12-24T14:06:30.774816",
        "meta_mean_motion": 14.79211878,
        "meta_eccentricity": 0.00654133,
        "meta_inclination": 74.0014,
        "meta_ra_of_asc_node": 108.9705,
        "meta_arg_of_pericenter": 256.3059,
        "meta_mean_anomaly": 119.0701,
        "meta_ephemeris_type": 0,
        "meta_classification_type": "U",
        "meta_norad_cat_id": 38001,
        "meta_element_set_no": 999,
        "meta_rev_at_epoch": 74883,
        "meta_bstar": 0.00090669096,
        "meta_mean_motion_dot": 6.951e-05,
        "meta_mean_motion_ddot": 0,
        "tle_line1": "1 38001U 93036BRC 25358.58785619  .00006951  00000+0  90669-3 0  9998",
        "tle_line2": "2 38001  74.0014 108.9705 0065413 256.3059 119.0701 14.79211878748836"
      },
      "geometry": {
        "type": "Point",
        "coordinates": [
          121.81642819974965,
          43.00723365050003
        ]
      }
    },
    {
      "type": "Feature",
      "properties": {
        "norad_id": 38006,
        "name": "COSMOS 2251 DEB",
        "group": "cosmos-2251-debris",
        "lat": 55.42043256542517,
        "lon": 168.3583558138283,
        "alt_km": 783.7137766005244,
        "timestamp": "2025-12-25T22:42:17.411099+00:00",
        "meta_object_name": "COSMOS 2251 DEB",
        "meta_object_id": "1993-036BRH",
        "meta_epoch": "2025-12-10T03:36:37.956384",
        "meta_mean_motion": 14.45867865,
        "meta_eccentricity": 0.00758537,
        "meta_inclination": 73.8744,
        "meta_ra_of_asc_node": 42.933,
        "meta_arg_of_pericenter": 348.3853,
        "meta_mean_anomaly": 11.555,
        "meta_ephemeris_type": 0,
        "meta_classification_type": "U",
        "meta_norad_cat_id": 38006,
        "meta_element_set_no": 999,
        "meta_rev_at_epoch": 62922,
        "meta_bstar": 0.0047338847,
        "meta_mean_motion_dot": 0.00017443,
        "meta_mean_motion_ddot": 0,
        "tle_line1": "1 38006U 93036BRH 25344.15043931  .00017443  00000+0  47339-2 0  9998",
        "tle_line2": "2 38006  73.8744  42.9330 0075853 348.3853  11.5550 14.45867865629227"
      },
      "geometry": {
        "type": "Point",
        "coordinates": [
          168.3583558138283,
          55.42043256542517
        ]
      }
    },
    {
      "type": "Feature",
      "properties": {
        "norad_id": 38054,
        "name": "COSMOS 2251 DEB",
        "group": "cosmos-2251-debris",
        "lat": -34.503993756294356,
        "lon": 75.59182368934756,
        "alt_km": 768.8844456453799,
        "timestamp": "2025-12-25T22:42:17.411109+00:00",
        "meta_object_name": "COSMOS 2251 DEB",
        "meta_object_id": "1993-036BRL",
        "meta_epoch": "2025-12-25T03:01:07.010112",
        "meta_mean_motion": 13.62393869,
        "meta_eccentricity": 0.03570212,
        "meta_inclination": 73.9517,
        "meta_ra_of_asc_node": 245.5222,
        "meta_arg_of_pericenter": 221.1559,
        "meta_mean_anomaly": 293.5582,
        "meta_ephemeris_type": 0,
        "meta_classification_type": "U",
        "meta_norad_cat_id": 38054,
        "meta_element_set_no": 999,
        "meta_rev_at_epoch": 67348,
        "meta_bstar": 0.0017292358,
        "meta_mean_motion_dot": 2.033e-05,
        "meta_mean_motion_ddot": 0,
        "tle_line1": "1 38054U 93036BRL 25359.12577558  .00002033  00000+0  17292-2 0  9995",
        "tle_line2": "2 38054  73.9517 245.5222 0357021 221.1559 293.5582 13.62393869673481"
      },
      "geometry": {
        "type": "Point",
        "coordinates": [
          75.59182368934756,
          -34.503993756294356
        ]
      }
    },
    {
      "type": "Feature",
      "properties": {
        "norad_id": 38055,
        "name": "COSMOS 2251 DEB",
        "group": "cosmos-2251-debris",
        "lat": -13.860698278145666,
        "lon": 4.880473004371735,
        "alt_km": 659.2244595965458,
        "timestamp": "2025-12-25T22:42:17.411119+00:00",
        "meta_object_name": "COSMOS 2251 DEB",
        "meta_object_id": "1993-036BRM",
        "meta_epoch": "2025-12-23T19:29:54.305376",
        "meta_mean_motion": 14.77082596,
        "meta_eccentricity": 0.00661115,
        "meta_inclination": 74.0078,
        "meta_ra_of_asc_node": 185.0116,
        "meta_arg_of_pericenter": 310.2011,
        "meta_mean_anomaly": 64.0463,
        "meta_ephemeris_type": 0,
        "meta_classification_type": "U",
        "meta_norad_cat_id": 38055,
        "meta_element_set_no": 999,
        "meta_rev_at_epoch": 60846,
        "meta_bstar": 0.00072215259,
        "meta_mean_motion_dot": 5.255e-05,
        "meta_mean_motion_ddot": 0,
        "tle_line1": "1 38055U 93036BRM 25357.81243409  .00005255  00000+0  72215-3 0  9991",
        "tle_line2": "2 38055  74.0078 185.0116 0066111 310.2011  64.0463 14.77082596608460"
      },
      "geometry": {
        "type": "Point",
        "coordinates": [
          4.880473004371735,
          -13.860698278145666
        ]
      }
    },
    {
      "type": "Feature",
      "properties": {
        "norad_id": 38060,
        "name": "COSMOS 2251 DEB",
        "group": "cosmos-2251-debris",
        "lat": 23.140198119042186,
        "lon": 82.93481669284087,
        "alt_km": 712.8494973960032,
        "timestamp": "2025-12-25T22:42:17.411129+00:00",
        "meta_object_name": "COSMOS 2251 DEB",
        "meta_object_id": "1993-036BRS",
        "meta_epoch": "2025-12-25T12:09:27.527040",
        "meta_mean_motion": 14.63928646,
        "meta_eccentricity": 0.0058702,
        "meta_inclination": 74.0433,
        "meta_ra_of_asc_node": 270.8015,
        "meta_arg_of_pericenter": 13.4821,
        "meta_mean_anomaly": 346.7897,
        "meta_ephemeris_type": 0,
        "meta_classification_type": "U",
        "meta_norad_cat_id": 38060,
        "meta_element_set_no": 999,
        "meta_rev_at_epoch": 72151,
        "meta_bstar": 0.00055069,
        "meta_mean_motion_dot": 2.924e-05,
        "meta_mean_motion_ddot": 0,
        "tle_line1": "1 38060U 93036BRS 25359.50656860  .00002924  00000+0  55069-3 0  9992",
        "tle_line2": "2 38060  74.0433 270.8015 0058702  13.4821 346.7897 14.63928646721513"
      },
      "geometry": {
        "type": "Point",
        "coordinates": [
          82.93481669284087,
          23.140198119042186
        ]
      }
    }
  ]
}